GALAXY 25 (G-25)        
1 24812U 97026A   22211.18590865 -.00000003  00000+0  00000+0 0  9993
2 24812   3.7944  83.2542 0005120  17.5041 340.0619  1.00271961 92153
INTELSAT 5 (IS-5)       
1 24916U 97046A   22211.37358816 -.00000062  00000+0  00000+0 0  9994
2 24916   7.3166  60.7696 0003260  96.3881  91.4653  1.00272735 91406
GALAXY 11 (G-11)        
1 26038U 99071A   22211.46542413 -.00000161  00000+0  00000+0 0  9999
2 26038   3.1051  87.2115 0000558 185.9122 109.4011  1.00271109 82862
INTELSAT 9 (IS-9)       
1 26451U 00043A   22211.47396977 -.00000287  00000+0  00000+0 0  9991
2 26451   7.3012  60.9436 0002281  71.7614 296.0180  1.00271510 29936
INTELSAT 1R (IS-1R)     
1 26608U 00072A   22211.37184414 -.00000138  00000+0  00000+0 0  9992
2 26608   4.5766  80.1979 0000428 332.1366 186.6037  1.00271554 27100
INTELSAT 10 (IS-10)     
1 26766U 01019A   22211.44763525  .00000035  00000+0  00000+0 0  9998
2 26766   5.6760  73.0163 0002803  31.8209 182.1665  1.00273423 31408
INTELSAT 901 (IS-901)   
1 26824U 01024A   22211.11785551 -.00000200  00000+0  00000+0 0  9991
2 26824   0.0202 272.3240 0001126 239.1232 171.2326  1.00270146  8753
INTELSAT 902 (IS-902)   
1 26900U 01039A   22211.47396977 -.00000281  00000+0  00000+0 0  9990
2 26900   2.5109  88.5729 0003050  48.7490 291.2891  1.00271329 76476
INTELSAT 904 (IS-904)   
1 27380U 02007A   22211.47806819 -.00000213  00000+0  00000+0 0  9995
2 27380   3.3413  85.5144 0002858  52.3113 312.8514  1.00271209 37557
DIRECTV 5 (TEMPO 1)     
1 27426U 02023A   22211.53367490 -.00000054  00000+0  00000+0 0  9991
2 27426   1.2337  92.7699 0003128  42.0797 255.2835  1.00271988 73909
INTELSAT 905 (IS-905)   
1 27438U 02027A   22211.42757672 -.00000184  00000+0  00000+0 0  9995
2 27438   3.1629  86.2548 0002481  43.2287 307.9857  1.00271057 37148
GALAXY 3C (G-3C)        
1 27445U 02030A   22211.46507532 -.00000149  00000+0  00000+0 0  9990
2 27445   0.0799  73.3790 0000649 291.6867  15.6170  1.00271670 32274
INTELSAT 906 (IS-906)   
1 27513U 02041A   22211.49681628  .00000016  00000+0  00000+0 0  9992
2 27513   2.1795  90.0505 0003197  46.9150  54.1265  1.00272377 72818
GALAXY 12 (G-12)        
1 27715U 03013B   22211.53001248  .00000059  00000+0  00000+0 0  9992
2 27715   3.3743  85.1447 0001701  50.3823 234.4082  1.00272141 37879
GALAXY 23 (G-23)        
1 27854U 03034A   22211.53166928  .00000016  00000+0  00000+0 0  9999
2 27854   0.0503 258.3417 0002903 243.2206 236.9847  1.00272695 69522
GALAXY 13 (HORIZONS-1)  
1 27954U 03044A   22211.38697090  .00000051  00000+0  00000+0 0  9992
2 27954   0.0124  57.1531 0001309 115.5919 147.5151  1.00272372 32353
INTELSAT 10-02          
1 28358U 04022A   22211.17410623 -.00000010  00000+0  00000+0 0  9996
2 28358   0.0165 269.8853 0000699 234.2895 225.3128  1.00264606 66323
XM-3 (RHYTHM)           
1 28626U 05008A   22211.46699374 -.00000202  00000+0  00000+0 0  9996
2 28626   0.0442 233.0586 0001513 309.4683 208.5628  1.00270180 28400
DIRECTV 8               
1 28659U 05019A   22211.25952209  .00000004  00000+0  00000+0 0  9999
2 28659   0.0171  95.7936 0002688  34.0753 152.3754  1.00272308 62857
GALAXY 28 (G-28)        
1 28702U 05022A   22211.46629615 -.00000182  00000+0  00000+0 0  9995
2 28702   0.0198  44.9515 0001916  86.6861 255.2956  1.00272096 37763
GALAXY 14 (G-14)        
1 28790U 05030A   22211.49053785  .00000157  00000+0  00000+0 0  9994
2 28790   1.3674  91.8430 0001703  37.3005  28.4446  1.00274635 62096
GALAXY 15 (G-15)        
1 28884U 05041A   22211.52922767  .00000082  00000+0  00000+0 0  9996
2 28884   0.0511 279.0907 0001757 211.9814 234.5700  1.00272199 61390
SPACEWAY 2              
1 28903U 05046B   22211.52809406  .00000105  00000+0  00000+0 0  9993
2 28903   2.0011  87.4887 0000349 191.5560  80.2877  1.00271205 37126
GALAXY 16 (G-16)        
1 29236U 06023A   22211.46429052 -.00000124  00000+0  00000+0 0  9999
2 29236   0.0543 261.6594 0002511 229.2253 245.3221  1.00272003 58752
DIRECTV 9S              
1 29494U 06043A   22211.46385453 -.00000110  00000+0  00000+0 0  9998
2 29494   0.0137  97.6186 0002970  40.4071 235.8235  1.00270972 37165
XM-4 (BLUES)            
1 29520U 06049A   22210.89305125 -.00000203  00000+0  00000+0 0  9991
2 29520   0.0629 274.5829 0001734  40.0769 229.2310  1.00272513 37252
GALAXY 17 (G-17)        
1 31307U 07016B   22211.46586014 -.00000171  00000+0  00000+0 0  9998
2 31307   0.0513 267.5227 0003123 238.5574 238.6807  1.00269526 55587
DIRECTV 10              
1 31862U 07032A   22211.40465965 -.00000100  00000+0  00000+0 0  9999
2 31862   0.0045 162.2922 0000453  57.2022 131.3949  1.00270604 31379
SPACEWAY 3              
1 32018U 07036A   22211.46507532 -.00000149  00000+0  00000+0 0  9993
2 32018   0.3295  89.5815 0000165 142.5869 148.3782  1.00271945 32331
INTELSAT 11 (IS-11)     
1 32253U 07044B   22211.36576958 -.00000266  00000+0  00000+0 0  9990
2 32253   0.0216  80.0284 0001734  80.3862 236.2625  1.00269074 54273
HORIZONS-2              
1 32388U 07063B   22211.49123545  .00000122  00000+0  00000+0 0  9994
2 32388   0.0342 310.3398 0004714 138.7640  72.2591  0.99706372 53600
DIRECTV 11              
1 32729U 08013A   22211.46420332 -.00000123  00000+0  00000+0 0  9992
2 32729   0.0011 194.6844 0000130 334.2092 207.1092  1.00272695 31377
GALAXY 18 (G-18)        
1 32951U 08024A   22211.53123328  .00000028  00000+0  00000+0 0  9997
2 32951   0.0217  87.0368 0003331  52.3738 236.9702  1.00269873 31630
INTELSAT 25 (IS-25)     
1 33153U 08034A   22211.47771939 -.00000221  00000+0  00000+0 0  9999
2 33153   0.0174 110.7668 0003016  43.2580 294.5315  1.00271898 51472
GALAXY 19 (G-19)        
1 33376U 08045A   22211.46463933 -.00000136  00000+0  00000+0 0  9994
2 33376   0.0197 286.6463 0002906 209.5853 242.1209  1.00269257 50686
FM-5                    
1 35493U 09034A   22211.35396561 -.00000197  00000+0  00000+0 0  9992
2 35493   0.0220  72.7866 0000656 310.8741 325.6012  1.00269387 32423
INTELSAT 14 (IS-14)     
1 36097U 09064A   22211.47501618 -.00000271  00000+0  00000+0 0  9993
2 36097   0.0145  75.7376 0002406  62.3838 295.9759  1.00272529 46389
INTELSAT 15 (IS-15)     
1 36106U 09067A   22211.50097476 -.00000183  00000+0  00000+0 0  9995
2 36106   0.0117  26.0950 0002243 113.4378  74.0743  1.00272286 27010
DIRECTV 12              
1 36131U 09075A   22211.40465965 -.00000101  00000+0  00000+0 0  9993
2 36131   0.0149 185.0707 0000161  14.6162 151.2926  1.00269408 46170
INTELSAT 16 (IS-16)     
1 36397U 10006A   22211.46882494 -.00000242  00000+0  00000+0 0  9995
2 36397   0.0186  37.7997 0001905  96.3685 266.4836  1.00272384 45437
XM-5                    
1 37185U 10053A   22211.26368991 -.00000020  00000+0  00000+0 0  9996
2 37185   0.0182  63.6831 0000624 283.7880 300.1369  1.00270252 43268
INTELSAT 17 (IS-17)     
1 37238U 10065B   22211.49716507  .00000001  00000+0  00000+0 0  9991
2 37238   0.0352 215.7533 0002557 277.4688  59.8527  1.00271999 39020
INTELSAT NEW DAWN       
1 37392U 11016A   22211.49053785  .00000158  00000+0  00000+0 0  9994
2 37392   0.0137 132.8785 0000791 343.0816  41.5468  1.00272954 39070
INTELSAT 18 (IS-18)     
1 37834U 11056A   22211.51989722  .00000055  00000+0  00000+0 0  9997
2 37834   0.0200  33.1700 0001831 102.6526 179.4651  1.00271881 39595
INTELSAT 22 (IS-22)     
1 38098U 12011A   22211.40327207 -.00000056  00000+0  00000+0 0  9996
2 38098   0.0099  45.6505 0002792  93.7587  25.8598  1.00270682 37601
INTELSAT 19 (IS-19)     
1 38356U 12030A   22211.51710682 -.00000054  00000+0  00000+0 0  9997
2 38356   0.0156  91.2551 0002914  42.8582 166.1617  1.00271177 36224
INTELSAT 20 (IS-20)     
1 38740U 12043A   22211.13887199 -.00000025  00000+0  00000+0 0  9992
2 38740   0.0164  94.7786 0001728 100.8542 230.6035  1.00282137 36523
INTELSAT 21 (IS-21)     
1 38749U 12045A   22211.47240016 -.00000282  00000+0  00000+0 0  9996
2 38749   0.0135  84.3324 0001977  47.7686 288.0482  1.00272773 36312
INTELSAT 23 (IS-23)     
1 38867U 12057A   22211.47344657 -.00000282  00000+0  00000+0 0  9996
2 38867   0.0229 104.0978 0001097  65.5361 255.9158  1.00268573 35723
FM-6                    
1 39360U 13058A   22211.25396498 -.00000014  00000+0  00000+0 0  9996
2 39360   0.0491 264.0144 0000390 121.6182 257.4914  1.00270665 31846
INTELSAT 30 (IS-30)     
1 40271U 14062A   22210.17479862 -.00000147  00000+0  00000+0 0  9999
2 40271   0.0205  76.3971 0001296  32.8726 165.4016  1.00259124 28357
DIRECTV 14              
1 40333U 14078B   22211.35952278 -.00000123  00000+0  00000+0 0  9997
2 40333   0.0138  87.0014 0000440 128.1089 123.0622  1.00271359 27849
DIRECTV 15              
1 40663U 15026A   22211.40465965 -.00000100  00000+0  00000+0 0  9990
2 40663   0.0126  88.8931 0000423 281.2637 340.6683  1.00271126 26249
SKY MEXICO-1            
1 40664U 15026B   22211.46830175 -.00000232  00000+0  00000+0 0  9992
2 40664   0.0128  69.8467 0001949  64.1761 263.8804  1.00272860 26231
INTELSAT 34 (IS-34)     
1 40874U 15039A   22211.47292337 -.00000283  00000+0  00000+0 0  9998
2 40874   0.0225 329.2706 0000732  43.9237  49.6458  1.00273646 25409
INTELSAT 31 (IS-31)     
1 41581U 16035A   22211.35952278 -.00000148  00000+0  00000+0 0  9995
2 41581   0.0113 113.5599 0001317 126.1903 102.5849  1.00271577 22477
INTELSAT 36 (IS-36)     
1 41747U 16053A   22211.13887199 -.00000022  00000+0  00000+0 0  9995
2 41747   0.0099  24.8390 0003245 334.8647  66.5315  1.00271045 21726
INTELSAT 33E (IS-33E)   
1 41748U 16053B   22211.49594427  .00000052  00000+0  00000+0 0  9996
2 41748   0.0136  61.7303 0001379  62.8212  62.0789  1.00271109 22037
INTELSAT 32E (IS-32E)   
1 41945U 17007B   22210.10049286 -.00000267  00000+0  00000+0 0  9999
2 41945   0.0163  66.7107 0000470 289.4359 303.5726  1.00272939 20004
INTELSAT 35E (IS-35E)   
1 42818U 17041A   22211.47710899 -.00000235  00000+0  00000+0 0  9998
2 42818   0.0255  95.5430 0001603  30.7452 319.0804  1.00270234 18591
INTELSAT 37E (IS-37E)   
1 42950U 17059A   22211.40868380 -.00000138  00000+0  00000+0 0  9998
2 42950   0.0136  94.0506 0002565  47.2127 295.8724  1.00273638 17844
AZERSPACE 2 (IS-38)     
1 43632U 18074A   22211.49297946  .00000139  00000+0  00000+0 0  9997
2 43632   0.0179  73.7283 0001287  60.0089  36.9433  1.00270669 14248
HORIZONS-3E             
1 43633U 18074B   22210.87194876 -.00000028  00000+0  00000+0 0  9995
2 43633   0.0064 200.3696 0001641 108.4295 121.5910  1.00272278 14113
AT&T T-16               
1 44333U 19034A   22211.40465965 -.00000112  00000+0  00000+0 0  9994
2 44333   0.0157 321.7188 0000528  43.6139 347.4976  1.00270391 11413
INTELSAT 39 (IS-39)     
1 44476U 19049B   22211.24493956  .00000036  00000+0  00000+0 0  9995
2 44476   0.0193  81.8398 0000974 255.7846 120.3460  1.00269582 10936
GALAXY 30 (G-30)        
1 46114U 20056C   22211.53079729  .00000040  00000+0  00000+0 0  9991
2 46114   0.0239  87.9194 0002086  46.6228 239.6979  1.00270122  7078
